[
    {
        "Altitude(m)": 612513.9606488119,
        "Argument of Periapsis(deg)": 0.0,
        "Eccentricity": 0.0,
        "Inclination(deg)": 60.0,
        "Latitude(deg)": -28.136057217425837,
        "Longitude(deg)": -87.08688637406767,
        "Mean Anomaly(deg)": -147.2727,
        "RAAN(deg)": 175.0,
        "Satellite Name": "Test1 783",
        "Satellite Number": 783,
        "Semi-Major Axis(m)": 6980739.136638005,
        "Time(s)": 0
    },
    {
        "Altitude(m)": 612708.3289697608,
        "Argument of Periapsis(deg)": 0.00010418945913296404,
        "Eccentricity": 0.0,
        "Inclination(deg)": 60.0,
        "Latitude(deg)": -28.64779638090792,
        "Longitude(deg)": -86.7296557077548,
        "Mean Anomaly(deg)": -146.65259385453817,
        "RAAN(deg)": 174.99957995086024,
        "Satellite Name": "Test1 783",
        "Satellite Number": 783,
        "Semi-Major Axis(m)": 6980739.136638005,
        "Time(s)": 10
    }
]